*******************************************************************************
JPL/HORIZONS              67P/Churyumov-Gerasimenko        2024-May-20 07:55:09
Rec #:90000700 (+COV) Soln.date: 2024-Feb-01_08:49:50   # obs: 8608 (2008-2023)
 
IAU76/J2000 helio. ecliptic osc. elements (au, days, deg., period=Julian yrs):
 
  EPOCH=  2457305.5 ! 2015-Oct-10.0000000 (TDB)    RMSW= n.a.
   EC= .6409081306555051   QR= 1.243265641416762   TP= 2457247.5886578634
   OM= 50.13557380441372   W= 12.79824973415729    IN= 7.040294906760007
   A= 3.462249489765068    MA= 8.859927418784899   ADIST= 5.681233338113374
   PER= 6.4423711636744    N= .152991229           ANGMOM= .024570022
   DAN= 1.25545            DDN= 5.44002            L= 62.8404707
   B= 1.5558267            MOID= .25693199         TP= 2015-Aug-13.0886578634
 
Comet physical (GM= km^3/s^2; RAD= km):
   GM= 6.622E-7            RAD= 1.7
   M1=  12.9     M2=  n.a.     k1=  7.5    k2= n.a.     PHCOF= n.a.
Comet non-gravitational force model (AMRAT=m^2/kg;A1-A3=au/d^2;DT=days;R0=au):
   AMRAT=  0.                                      DT=  45.68888
   A1= 1.042451038957E-9   A2= -6.739627569914E-11 A3= 2.960945479572E-10
 Standard model:
   ALN=  .1112620426   NK=  4.6142   NM=  2.15     NN=  5.093    R0=  2.808
 
COMET comments 
1: soln ref.= JPL#K213/6, data arc: 2008-06-01 to 2023-04-26
2: k1=7.5;
*******************************************************************************


*******************************************************************************
Ephemeris / WWW_USER Mon May 20 07:55:10 2024 Pasadena, USA      / Horizons    
*******************************************************************************
Target body name: 67P/Churyumov-Gerasimenko       {source: JPL#K213/6}
Center body name: Sun (10)                        {source: DE441}
Center-site name: BODYCENTRIC
*******************************************************************************
Start time      : A.D. 1900-Jan-01 00:00:00.0000 UT      
Stop  time      : A.D. 2200-Jan-01 00:00:00.0000 UT      
Step-size       : 1 calendar month
*******************************************************************************
Target pole/equ : IAU                             {East-longitude positive}
Target radii    : 2.4, 1.55, 1.2 km               {Equator_a, b, pole_c}       
Center geodetic : 0.0, 0.0, -695700.0             {E-lon(deg),Lat(deg),Alt(km)}
Center cylindric: 0.0, 0.0, 0.0                   {E-lon(deg),Dxy(km),Dz(km)}
Center pole/equ : IAU_SUN                         {East-longitude positive}
Center radii    : 695700.0, 695700.0, 695700.0 km {Equator_a, b, pole_c}       
Target primary  : Sun
Vis. interferer : None
Rel. light bend : Sun                             {source: DE441}
Rel. lght bnd GM: 1.3271E+11 km^3/s^2                                          
Small-body perts: Yes                             {source: SB441-N16}
Atmos refraction: NO (AIRLESS)
RA format       : DEG
Time format     : CAL 
Calendar mode   : Mixed Julian/Gregorian
EOP file        : eop.240517.p240810                                           
EOP coverage    : DATA-BASED 1962-JAN-20 TO 2024-MAY-17. PREDICTS-> 2024-AUG-09
Units conversion: 1 au= 149597870.700 km, c= 299792.458 km/s, 1 day= 86400.0 s 
Table cut-offs 1: Elevation (-90.0deg=NO ),Airmass     n.a.    , Daylight (NO )
Table cut-offs 2: Solar elongation (  0.0,180.0=NO ),Local Hour Angle( 0.0=NO )
Table cut-offs 3: RA/DEC angular rate (     0.0=NO )                           
Table format    : Comma Separated Values (spreadsheet)
*******************************************************************************
Initial IAU76/J2000 heliocentric ecliptic osculating elements (au, days, deg.):
  EPOCH=  2457305.5 ! 2015-Oct-10.0000000 (TDB)    RMSW= n.a.                  
   EC= .6409081306555051   QR= 1.243265641416762   TP= 2457247.5886578634      
   OM= 50.13557380441372   W= 12.79824973415729    IN= 7.040294906760007       
  Equivalent ICRF heliocentric cartesian coordinates (au, au/d):
   X=-5.017310686400782E-01  Y= 1.157300945518487E+00  Z= 6.681306043628923E-01
  VX=-1.804796777549247E-02 VY=-1.430719761134233E-03 VZ= 1.171342386004957E-03
Comet physical (GM= km^3/s^2; RAD= km):                                        
   GM= 6.622E-7            RAD= 1.7                                            
   M1=  12.9     M2=  n.a.     k1=  7.5    k2= n.a.     PHCOF= n.a.            
Comet non-gravitational force model (AMRAT=m^2/kg;A1-A3=au/d^2;DT=days;R0=au): 
   AMRAT=  0.                                      DT=  45.68888               
   A1= 1.042451038957E-9   A2= -6.739627569914E-11 A3= 2.960945479572E-10      
 Standard model:                                                               
   ALN=  .1112620426   NK=  4.6142   NM=  2.15     NN=  5.093    R0=  2.808    
*******************************************************************************
 Date__(UT)__HR:MN, , , hEcl-Lon,hEcl-Lat,      PlAng,  Tru_Anom,  App_Lon_Sun,
*******************************************************************************
$$SOE
 1982-Sep-01 00:00, , ,   8.7022, -4.8042,   -0.00612,  306.0985,  195.0942116,
 1982-Oct-01 00:00, , ,  28.6394, -2.7210,   -0.00798,  326.1003,  215.0950238,
 1982-Nov-01 00:00, , ,  53.0285,  0.2515,   -0.00978,  350.6614,  239.6557941,
 1982-Dec-01 00:00, , ,  77.9598,  3.2383,   -0.01093,   15.7565,  264.7509897,
 1983-Jan-01 00:00, , , 101.6403,  5.5129,   -0.01130,   39.4749,  288.4697435,
 1983-Feb-01 00:00, , , 121.1931,  6.6991,   -0.01112,   58.9517,  307.9469392,
 1983-Mar-01 00:00, , , 135.2680,  7.0813,   -0.01079,   72.9301,  321.9254852,
 1983-Apr-01 00:00, , , 147.6457,  7.0696,   -0.01040,   85.2136,  334.2090235,
 1983-May-01 00:00, , , 157.2202,  6.8366,   -0.01008,   94.7210,  343.7162282,
 1983-Jun-01 00:00, , , 165.3022,  6.4924,   -0.00981,  102.7569,  351.7511829,
 1983-Jul-01 00:00, , , 171.8294,  6.1202,   -0.00961,  109.2566,  358.2497885,
 1983-Aug-01 00:00, , , 177.5727,  5.7268,   -0.00944,  114.9838,    3.9761114,
 1983-Sep-01 00:00, , , 182.5375,  5.3401,   -0.00931,  119.9414,    8.9330826,
 1983-Oct-01 00:00, , , 186.7642,  4.9790,   -0.00921,  124.1663,   13.1583074,
 1983-Nov-01 00:00, , , 190.6575,  4.6220,   -0.00913,  128.0615,   17.0544464,
 1983-Dec-01 00:00, , , 194.0537,  4.2930,   -0.00908,  131.4626,   20.4564443,
 1984-Jan-01 00:00, , , 197.2487,  3.9694,   -0.00904,  134.6651,   23.6596242,
 1984-Feb-01 00:00, , , 200.1785,  3.6616,   -0.00901,  137.6049,   26.5992278,
 1984-Mar-01 00:00, , , 202.7177,  3.3869,   -0.00900,  140.1551,   29.1484669,
 1984-Apr-01 00:00, , , 205.2489,  3.1063,   -0.00899,  142.6991,   31.6912947,
 1984-May-01 00:00, , , 207.5443,  2.8465,   -0.00899,  145.0074,   33.9983174,
 1984-Jun-01 00:00, , , 209.7791,  2.5891,   -0.00899,  147.2557,   36.2454318,
 1984-Jul-01 00:00, , , 211.8267,  2.3496,   -0.00899,  149.3164,   38.3051768,
 1984-Aug-01 00:00, , , 213.8391,  2.1113,   -0.00900,  151.3429,   40.3301763,
 1984-Sep-01 00:00, , , 215.7596,  1.8813,   -0.00901,  153.2779,   42.2631882,
 1984-Oct-01 00:00, , , 217.5412,  1.6661,   -0.00901,  155.0737,   44.0569123,
 1984-Nov-01 00:00, , , 219.3123,  1.4504,   -0.00902,  156.8596,   45.8404041,
 1984-Dec-01 00:00, , , 220.9664,  1.2477,   -0.00902,  158.5277,   47.5064732,
 1985-Jan-01 00:00, , , 222.6212,  1.0439,   -0.00902,  160.1960,   49.1733984,
 1985-Feb-01 00:00, , , 224.2269,  0.8452,   -0.00902,  161.8151,   50.7911955,
 1985-Mar-01 00:00, , , 225.6400,  0.6698,   -0.00902,  163.2402,   52.2150091,
 1985-Apr-01 00:00, , , 227.1680,  0.4797,   -0.00902,  164.7815,   53.7546939,
 1985-May-01 00:00, , , 228.6144,  0.2994,   -0.00902,  166.2413,   55.2122528,
 1985-Jun-01 00:00, , , 230.0798,  0.1165,   -0.00902,  167.7205,   56.6889805,
 1985-Jul-01 00:00, , , 231.4734, -0.0575,   -0.00901,  169.1269,   58.0932404,
 1985-Aug-01 00:00, , , 232.8914, -0.2345,   -0.00900,  170.5577,   59.5221682,
 1985-Sep-01 00:00, , , 234.2904, -0.4090,   -0.00898,  171.9687,   60.9319177,
 1985-Oct-01 00:00, , , 235.6291, -0.5758,   -0.00897,  173.3185,   62.2809018,
 1985-Nov-01 00:00, , , 236.9998, -0.7461,   -0.00894,  174.7005,   63.6619396,
 1985-Dec-01 00:00, , , 238.3165, -0.9094,   -0.00892,  176.0279,   64.9885569,
 1986-Jan-01 00:00, , , 239.6698, -1.0767,   -0.00889,  177.3920,   66.3518464,
 1986-Feb-01 00:00, , , 241.0181, -1.2428,   -0.00886,  178.7508,   67.7100869,
 1986-Mar-01 00:00, , , 242.2340, -1.3919,   -0.00882,  179.9755,   68.9347135,
 1986-Apr-01 00:00, , , 243.5803, -1.5563,   -0.00879,  181.3312,   70.2905329,
 1986-May-01 00:00, , , 244.8857, -1.7149,   -0.00875,  182.6453,   71.6049484,
 1986-Jun-01 00:00, , , 246.2397, -1.8784,   -0.00871,  184.0080,   72.9681066,
 1986-Jul-01 00:00, , , 247.5575, -2.0365,   -0.00866,  185.3342,   74.2945197,
 1986-Aug-01 00:00, , , 248.9296, -2.1999,   -0.00861,  186.7145,   75.6752555,
 1986-Sep-01 00:00, , , 250.3149, -2.3636,   -0.00856,  188.1073,   77.0690689,
 1986-Oct-01 00:00, , , 251.6711, -2.5225,   -0.00850,  189.4699,   78.4331916,
 1986-Nov-01 00:00, , , 253.0916, -2.6874,   -0.00844,  190.8961,   79.8616439,
 1986-Dec-01 00:00, , , 254.4878, -2.8477,   -0.00838,  192.2973,   81.2654048,
 1987-Jan-01 00:00, , , 255.9564, -3.0146,   -0.00831,  193.7710,   82.7415723,
 1987-Feb-01 00:00, , , 257.4552, -3.1828,   -0.00824,  195.2748,   84.2476216,
 1987-Mar-01 00:00, , , 258.8385, -3.3360,   -0.00818,  196.6624,   85.6371342,
 1987-Apr-01 00:00, , , 260.4070, -3.5074,   -0.00812,  198.2353,   87.2121723,
 1987-May-01 00:00, , , 261.9667, -3.6751,   -0.00805,  199.7983,   88.7777976,
 1987-Jun-01 00:00, , , 263.6273, -3.8506,   -0.00798,  201.4612,   90.4440299,
 1987-Jul-01 00:00, , , 265.2878, -4.0228,   -0.00792,  203.1232,   92.1094627,
 1987-Aug-01 00:00, , , 267.0661, -4.2035,   -0.00785,  204.9023,   93.8923325,
 1987-Sep-01 00:00, , , 268.9164, -4.3870,   -0.00778,  206.7529,   95.7465233,
 1987-Oct-01 00:00, , , 270.7849, -4.5677,   -0.00771,  208.6210,   97.6180143,
